start=new Date('2023-01-25T00:00:00.000Z').valueOf();
sats=[{"FILE":"3759743","EPOCH":"2023-01-24T10:13:59.211264","SITE":"AFWTR","PERIOD":"95.437","MEAN_ELEMENT_THEORY":"SGP4","ARG_OF_PERICENTER":"118.3633","CENTER_NAME":"EARTH","MEAN_MOTION_DDOT":"0.0000000000000","OBJECT_TYPE":"PAYLOAD","ELEMENT_SET_NO":"999","GP_ID":"223632953","EPHEMERIS_TYPE":"0","INCLINATION":"53.2164","SEMIMAJOR_AXIS":"6917.864","RA_OF_ASC_NODE":"83.1685","NORAD_CAT_ID":"54164","MEAN_ANOMALY":"241.7509","LAUNCH_DATE":"2022-10-28","REV_AT_EPOCH":"1371","ECCENTRICITY":"0.00014800","MEAN_MOTION":"15.08845247","OBJECT_NAME":"STARLINK-5278","COUNTRY_CODE":"US","TLE_LINE1":"1 54164U 22141H   23024.42637976  .00011384  00000-0  73211-3 0  9999","BSTAR":"0.00073211000000","REF_FRAME":"TEME","CLASSIFICATION_TYPE":"U","APOAPSIS":"540.753","PERIAPSIS":"538.706","OBJECT_ID":"2022-141H","RCS_SIZE":"LARGE","DECAY_DATE":null,"TIME_SYSTEM":"UTC","TLE_LINE2":"2 54164  53.2164  83.1685 0001480 118.3633 241.7509 15.08845247 13716","MEAN_MOTION_DOT":"0.00011384"},{"MEAN_MOTION_DOT":"0.00006216","TLE_LINE2":"2 54165  53.2153  93.0366 0001286 107.8762 252.2371 15.08839022 13573","TIME_SYSTEM":"UTC","DECAY_DATE":null,"RCS_SIZE":"LARGE","OBJECT_ID":"2022-141J","PERIAPSIS":"538.859","APOAPSIS":"540.638","CLASSIFICATION_TYPE":"U","REF_FRAME":"TEME","BSTAR":"0.00040832000000","TLE_LINE1":"1 54165U 22141J   23024.40703243  .00006216  00000-0  40832-3 0  9990","COUNTRY_CODE":"US","OBJECT_NAME":"STARLINK-5279","MEAN_MOTION":"15.08839022","ECCENTRICITY":"0.00012860","REV_AT_EPOCH":"1357","LAUNCH_DATE":"2022-10-28","MEAN_ANOMALY":"252.2371","NORAD_CAT_ID":"54165","RA_OF_ASC_NODE":"93.0366","SEMIMAJOR_AXIS":"6917.883","INCLINATION":"53.2153","GP_ID":"223643437","EPHEMERIS_TYPE":"0","ELEMENT_SET_NO":"999","OBJECT_TYPE":"PAYLOAD","MEAN_MOTION_DDOT":"0.0000000000000","CENTER_NAME":"EARTH","ARG_OF_PERICENTER":"107.8762","MEAN_ELEMENT_THEORY":"SGP4","PERIOD":"95.438","SITE":"AFWTR","EPOCH":"2023-01-24T09:46:07.601952","FILE":"3760225"},{"OBJECT_NAME":"STARLINK-5280","MEAN_MOTION":"15.08841940","ECCENTRICITY":"0.00016890","REV_AT_EPOCH":"1357","LAUNCH_DATE":"2022-10-28","COUNTRY_CODE":"US","TLE_LINE1":"1 54166U 22141K   23023.49165243 -.00000826  00000-0 -33807-4 0  9999","BSTAR":"-0.00003380700000","APOAPSIS":"540.908","CLASSIFICATION_TYPE":"U","REF_FRAME":"TEME","PERIAPSIS":"538.571","TIME_SYSTEM":"UTC","RCS_SIZE":"LARGE","DECAY_DATE":null,"OBJECT_ID":"2022-141K","MEAN_MOTION_DOT":"-0.00000826","TLE_LINE2":"2 54166  53.2179  87.2839 0001689  69.5645 290.5528 15.08841940 13574","FILE":"3758969","EPOCH":"2023-01-23T11:47:58.769952","ARG_OF_PERICENTER":"69.5645","MEAN_ELEMENT_THEORY":"SGP4","PERIOD":"95.437","SITE":"AFWTR","OBJECT_TYPE":"PAYLOAD","MEAN_MOTION_DDOT":"0.0000000000000","CENTER_NAME":"EARTH","GP_ID":"223616013","EPHEMERIS_TYPE":"0","ELEMENT_SET_NO":"999","INCLINATION":"53.2179","RA_OF_ASC_NODE":"87.2839","SEMIMAJOR_AXIS":"6917.874","NORAD_CAT_ID":"54166","MEAN_ANOMALY":"290.5528"},{"REV_AT_EPOCH":"1357","LAUNCH_DATE":"2022-10-28","OBJECT_NAME":"STARLINK-5243","ECCENTRICITY":"0.00011530","MEAN_MOTION":"15.08847596","COUNTRY_CODE":"US","TLE_LINE1":"1 54167U 22141L   23024.45211619  .00001833  00000-0  13318-3 0  9997","BSTAR":"0.00013318000000","REF_FRAME":"TEME","APOAPSIS":"540.520","CLASSIFICATION_TYPE":"U","PERIAPSIS":"538.925","RCS_SIZE":"LARGE","DECAY_DATE":null,"OBJECT_ID":"2022-141L","TIME_SYSTEM":"UTC","TLE_LINE2":"2 54167  53.2163  92.6008 0001153 104.5549 255.5571 15.08847596 13577","MEAN_MOTION_DOT":"0.00001833","FILE":"3759744","EPOCH":"2023-01-24T10:51:02.838816","MEAN_ELEMENT_THEORY":"SGP4","PERIOD":"95.437","SITE":"AFWTR","ARG_OF_PERICENTER":"104.5549","MEAN_MOTION_DDOT":"0.0000000000000","CENTER_NAME":"EARTH","OBJECT_TYPE":"PAYLOAD","EPHEMERIS_TYPE":"0","GP_ID":"223633165","ELEMENT_SET_NO":"999","INCLINATION":"53.2163","SEMIMAJOR_AXIS":"6917.857","RA_OF_ASC_NODE":"92.6008","NORAD_CAT_ID":"54167","MEAN_ANOMALY":"255.5571"},{"ELEMENT_SET_NO":"999","GP_ID":"223634569","EPHEMERIS_TYPE":"0","INCLINATION":"53.2179","SEMIMAJOR_AXIS":"6917.815","RA_OF_ASC_NODE":"82.7999","MEAN_ANOMALY":"261.5009","NORAD_CAT_ID":"54168","FILE":"3759813","EPOCH":"2023-01-24T11:33:26.029728","ARG_OF_PERICENTER":"98.6120","SITE":"AFWTR","MEAN_ELEMENT_THEORY":"SGP4","PERIOD":"95.436","OBJECT_TYPE":"PAYLOAD","CENTER_NAME":"EARTH","MEAN_MOTION_DDOT":"0.0000000000000","CLASSIFICATION_TYPE":"U","APOAPSIS":"540.511","REF_FRAME":"TEME","PERIAPSIS":"538.848","TIME_SYSTEM":"UTC","OBJECT_ID":"2022-141M","RCS_SIZE":"LARGE","DECAY_DATE":null,"MEAN_MOTION_DOT":"0.00002849","TLE_LINE2":"2 54168  53.2179  82.7999 0001202  98.6120 261.5009 15.08861488 13723","MEAN_MOTION":"15.08861488","ECCENTRICITY":"0.00012020","OBJECT_NAME":"STARLINK-5245","LAUNCH_DATE":"2022-10-28","REV_AT_EPOCH":"1372","COUNTRY_CODE":"US","TLE_LINE1":"1 54168U 22141M   23024.48155127  .00002849  00000-0  19690-3 0  9999","BSTAR":"0.00019690000000"},{"COUNTRY_CODE":"US","LAUNCH_DATE":"2022-10-28","REV_AT_EPOCH":"1357","MEAN_MOTION":"15.08836751","ECCENTRICITY":"0.00013760","OBJECT_NAME":"STARLINK-5282","BSTAR":"-0.00001990700000","TLE_LINE1":"1 54169U 22141N   23023.43638178 -.00000605  00000-0 -19907-4 0  9998","PERIAPSIS":"538.803","REF_FRAME":"TEME","CLASSIFICATION_TYPE":"U","APOAPSIS":"540.707","TLE_LINE2":"2 54169  53.2181  86.9472 0001376  82.2351 277.8797 15.08836751 13578","MEAN_MOTION_DOT":"-0.00000605","OBJECT_ID":"2022-141N","DECAY_DATE":null,"RCS_SIZE":"LARGE","TIME_SYSTEM":"UTC","EPOCH":"2023-01-23T10:28:23.385792","FILE":"3758661","CENTER_NAME":"EARTH","MEAN_MOTION_DDOT":"0.0000000000000","OBJECT_TYPE":"PAYLOAD","SITE":"AFWTR","MEAN_ELEMENT_THEORY":"SGP4","PERIOD":"95.438","ARG_OF_PERICENTER":"82.2351","INCLINATION":"53.2181","ELEMENT_SET_NO":"999","GP_ID":"223609938","EPHEMERIS_TYPE":"0","NORAD_CAT_ID":"54169","MEAN_ANOMALY":"277.8797","SEMIMAJOR_AXIS":"6917.890","RA_OF_ASC_NODE":"86.9472"},{"REF_FRAME":"TEME","CLASSIFICATION_TYPE":"U","APOAPSIS":"540.468","PERIAPSIS":"538.982","OBJECT_ID":"2022-141P","DECAY_DATE":null,"RCS_SIZE":"LARGE","TIME_SYSTEM":"UTC","TLE_LINE2":"2 54170  53.2163  82.7784 0001074  94.0871 266.0244 15.08846747 13712","MEAN_MOTION_DOT":"0.00010609","LAUNCH_DATE":"2022-10-28","REV_AT_EPOCH":"1371","ECCENTRICITY":"0.00010740","MEAN_MOTION":"15.08846747","OBJECT_NAME":"STARLINK-5155","COUNTRY_CODE":"US","TLE_LINE1":"1 54170U 22141P   23024.47788181  .00010609  00000-0  68354-3 0  9997","BSTAR":"0.00068354000000","ELEMENT_SET_NO":"999","EPHEMERIS_TYPE":"0","GP_ID":"223633511","INCLINATION":"53.2163","RA_OF_ASC_NODE":"82.7784","SEMIMAJOR_AXIS":"6917.860","NORAD_CAT_ID":"54170","MEAN_ANOMALY":"266.0244","FILE":"3759747","EPOCH":"2023-01-24T11:28:08.988384","SITE":"AFWTR","MEAN_ELEMENT_THEORY":"SGP4","PERIOD":"95.437","ARG_OF_PERICENTER":"94.0871","CENTER_NAME":"EARTH","MEAN_MOTION_DDOT":"0.0000000000000","OBJECT_TYPE":"PAYLOAD"},{"EPOCH":"2023-01-24T10:49:03.866880","FILE":"3760047","OBJECT_TYPE":"PAYLOAD","CENTER_NAME":"EARTH","MEAN_MOTION_DDOT":"0.0000000000000","ARG_OF_PERICENTER":"102.8628","SITE":"AFWTR","MEAN_ELEMENT_THEORY":"SGP4","PERIOD":"95.437","INCLINATION":"53.2161","ELEMENT_SET_NO":"999","EPHEMERIS_TYPE":"0","GP_ID":"223638711","NORAD_CAT_ID":"54171","MEAN_ANOMALY":"257.2479","RA_OF_ASC_NODE":"87.5931","SEMIMAJOR_AXIS":"6917.847","COUNTRY_CODE":"US","MEAN_MOTION":"15.08850979","ECCENTRICITY":"0.00010270","OBJECT_NAME":"STARLINK-5229","LAUNCH_DATE":"2022-10-28","REV_AT_EPOCH":"1365","BSTAR":"0.00095539000000","TLE_LINE1":"1 54171U 22141Q   23024.45073920  .00014954  00000-0  95539-3 0  9996","PERIAPSIS":"539.001","CLASSIFICATION_TYPE":"U","APOAPSIS":"540.422","REF_FRAME":"TEME","MEAN_MOTION_DOT":"0.00014954","TLE_LINE2":"2 54171  53.2161  87.5931 0001027 102.8628 257.2479 15.08850979 13651","TIME_SYSTEM":"UTC","OBJECT_ID":"2022-141Q","RCS_SIZE":"LARGE","DECAY_DATE":null},{"BSTAR":"0.00061664000000","TLE_LINE1":"1 54172U 22141R   23024.47051353  .00009541  00000-0  61664-3 0  9993","COUNTRY_CODE":"US","MEAN_MOTION":"15.08843931","ECCENTRICITY":"0.00013000","OBJECT_NAME":"STARLINK-5117","LAUNCH_DATE":"2022-10-28","REV_AT_EPOCH":"1372","MEAN_MOTION_DOT":"0.00009541","TLE_LINE2":"2 54172  53.2158  82.7336 0001300  74.8689 285.2447 15.08843931 13727","TIME_SYSTEM":"UTC","OBJECT_ID":"2022-141R","DECAY_DATE":null,"RCS_SIZE":"LARGE","PERIAPSIS":"538.834","CLASSIFICATION_TYPE":"U","APOAPSIS":"540.633","REF_FRAME":"TEME","OBJECT_TYPE":"PAYLOAD","CENTER_NAME":"EARTH","MEAN_MOTION_DDOT":"0.0000000000000","ARG_OF_PERICENTER":"74.8689","SITE":"AFWTR","MEAN_ELEMENT_THEORY":"SGP4","PERIOD":"95.437","EPOCH":"2023-01-24T11:17:32.368992","FILE":"3759747","NORAD_CAT_ID":"54172","MEAN_ANOMALY":"285.2447","SEMIMAJOR_AXIS":"6917.868","RA_OF_ASC_NODE":"82.7336","INCLINATION":"53.2158","ELEMENT_SET_NO":"999","GP_ID":"223633517","EPHEMERIS_TYPE":"0"},{"TLE_LINE1":"1 54173U 22141S   23023.44006341  .00001091  00000-0  86626-4 0  9995","BSTAR":"0.00008662600000","LAUNCH_DATE":"2022-10-28","REV_AT_EPOCH":"1357","MEAN_MOTION":"15.08836604","ECCENTRICITY":"0.00010790","OBJECT_NAME":"STARLINK-5242","COUNTRY_CODE":"US","OBJECT_ID":"2022-141S","RCS_SIZE":"LARGE","DECAY_DATE":null,"TIME_SYSTEM":"UTC","TLE_LINE2":"2 54173  53.2167  86.9682 0001079  76.1607 283.9505 15.08836604 13578","MEAN_MOTION_DOT":"0.00001091","REF_FRAME":"TEME","CLASSIFICATION_TYPE":"U","APOAPSIS":"540.502","PERIAPSIS":"539.009","SITE":"AFWTR","MEAN_ELEMENT_THEORY":"SGP4","PERIOD":"95.438","ARG_OF_PERICENTER":"76.1607","CENTER_NAME":"EARTH","MEAN_MOTION_DDOT":"0.0000000000000","OBJECT_TYPE":"PAYLOAD","FILE":"3758662","EPOCH":"2023-01-23T10:33:41.478624","RA_OF_ASC_NODE":"86.9682","SEMIMAJOR_AXIS":"6917.891","NORAD_CAT_ID":"54173","MEAN_ANOMALY":"283.9505","ELEMENT_SET_NO":"999","GP_ID":"223609747","EPHEMERIS_TYPE":"0","INCLINATION":"53.2167"}];
